{
  "type": "FeatureCollection",
  "features": [
    {
      "type": "Feature",
      "properties": {
        "norad_id": 33886,
        "name": "IRIDIUM 33 DEB",
        "group": "iridium-33-debris",
        "lat": 32.564794742890776,
        "lon": -111.72056754057105,
        "alt_km": 774.7570140141961,
        "timestamp": "2025-12-04T17:48:40.549463+00:00",
        "meta_object_name": "IRIDIUM 33 DEB",
        "meta_object_id": "1997-051BF",
        "meta_epoch": "2025-12-04T07:22:11.807904",
        "meta_mean_motion": 14.36036428,
        "meta_eccentricity": 0.0012068,
        "meta_inclination": 86.3832,
        "meta_ra_of_asc_node": 70.7776,
        "meta_arg_of_pericenter": 274.1551,
        "meta_mean_anomaly": 145.5306,
        "meta_ephemeris_type": 0,
        "meta_classification_type": "U",
        "meta_norad_cat_id": 33886,
        "meta_element_set_no": 999,
        "meta_rev_at_epoch": 87931,
        "meta_bstar": 0.00041727262,
        "meta_mean_motion_dot": 1.233e-05,
        "meta_mean_motion_ddot": 0,
        "tle_line1": "1 33886U 97051BF  25338.30708111  .00001233  00000+0  41727-3 0  9994",
        "tle_line2": "2 33886  86.3832  70.7776 0012068 274.1551 145.5306 14.36036428879315"
      },
      "geometry": {
        "type": "Point",
        "coordinates": [
          -111.72056754057105,
          32.564794742890776
        ]
      }
    },
    {
      "type": "Feature",
      "properties": {
        "norad_id": 33887,
        "name": "IRIDIUM 33 DEB",
        "group": "iridium-33-debris",
        "lat": 49.75747884009432,
        "lon": 11.217752385390048,
        "alt_km": 765.6171465271373,
        "timestamp": "2025-12-04T17:48:40.549473+00:00",
        "meta_object_name": "IRIDIUM 33 DEB",
        "meta_object_id": "1997-051BG",
        "meta_epoch": "2025-12-04T02:49:23.956896",
        "meta_mean_motion": 14.37209414,
        "meta_eccentricity": 0.00040371,
        "meta_inclination": 86.3051,
        "meta_ra_of_asc_node": 7.1078,
        "meta_arg_of_pericenter": 267.9412,
        "meta_mean_anomaly": 152.9243,
        "meta_ephemeris_type": 0,
        "meta_classification_type": "U",
        "meta_norad_cat_id": 33887,
        "meta_element_set_no": 999,
        "meta_rev_at_epoch": 88041,
        "meta_bstar": 0.00026791584,
        "meta_mean_motion_dot": 8.17e-06,
        "meta_mean_motion_ddot": 0,
        "tle_line1": "1 33887U 97051BG  25338.11763839  .00000817  00000+0  26792-3 0  9994",
        "tle_line2": "2 33887  86.3051   7.1078 0004037 267.9412 152.9243 14.37209414880414"
      },
      "geometry": {
        "type": "Point",
        "coordinates": [
          11.217752385390048,
          49.75747884009432
        ]
      }
    },
    {
      "type": "Feature",
      "properties": {
        "norad_id": 33953,
        "name": "IRIDIUM 33 DEB",
        "group": "iridium-33-debris",
        "lat": 73.00101476700361,
        "lon": -134.6823774278802,
        "alt_km": 689.5129096895971,
        "timestamp": "2025-12-04T17:48:40.549483+00:00",
        "meta_object_name": "IRIDIUM 33 DEB",
        "meta_object_id": "1997-051BN",
        "meta_epoch": "2025-12-04T06:01:08.832288",
        "meta_mean_motion": 14.55185783,
        "meta_eccentricity": 0.00185112,
        "meta_inclination": 86.3856,
        "meta_ra_of_asc_node": 57.4632,
        "meta_arg_of_pericenter": 128.7248,
        "meta_mean_anomaly": 285.6216,
        "meta_ephemeris_type": 0,
        "meta_classification_type": "U",
        "meta_norad_cat_id": 33953,
        "meta_element_set_no": 999,
        "meta_rev_at_epoch": 88180,
        "meta_bstar": 0.0031546593,
        "meta_mean_motion_dot": 0.00013702,
        "meta_mean_motion_ddot": 0,
        "tle_line1": "1 33953U 97051BN  25338.25079667  .00013702  00000+0  31547-2 0  9992",
        "tle_line2": "2 33953  86.3856  57.4632 0018511 128.7248 285.6216 14.55185783881808"
      },
      "geometry": {
        "type": "Point",
        "coordinates": [
          -134.6823774278802,
          73.00101476700361
        ]
      }
    },
    {
      "type": "Feature",
      "properties": {
        "norad_id": 33960,
        "name": "IRIDIUM 33 DEB",
        "group": "iridium-33-debris",
        "lat": 39.82102218181038,
        "lon": 110.15007999283475,
        "alt_km": 610.1536662196604,
        "timestamp": "2025-12-04T17:48:40.549494+00:00",
        "meta_object_name": "IRIDIUM 33 DEB",
        "meta_object_id": "1997-051BV",
        "meta_epoch": "2025-12-04T08:00:50.814144",
        "meta_mean_motion": 14.84493479,
        "meta_eccentricity": 0.00070442,
        "meta_inclination": 86.2531,
        "meta_ra_of_asc_node": 293.4746,
        "meta_arg_of_pericenter": 74.0008,
        "meta_mean_anomaly": 45.7445,
        "meta_ephemeris_type": 0,
        "meta_classification_type": "U",
        "meta_norad_cat_id": 33960,
        "meta_element_set_no": 999,
        "meta_rev_at_epoch": 88742,
        "meta_bstar": 0.0078775525,
        "meta_mean_motion_dot": 0.00066968,
        "meta_mean_motion_ddot": 0,
        "tle_line1": "1 33960U 97051BV  25338.33392146  .00066968  00000+0  78776-2 0  9996",
        "tle_line2": "2 33960  86.2531 293.4746 0007044  74.0008  45.7445 14.84493479887428"
      },
      "geometry": {
        "type": "Point",
        "coordinates": [
          110.15007999283475,
          39.82102218181038
        ]
      }
    },
    {
      "type": "Feature",
      "properties": {
        "norad_id": 33966,
        "name": "IRIDIUM 33 DEB",
        "group": "iridium-33-debris",
        "lat": 36.218284242149785,
        "lon": 52.10680203301653,
        "alt_km": 729.3009114485458,
        "timestamp": "2025-12-04T17:48:40.549505+00:00",
        "meta_object_name": "IRIDIUM 33 DEB",
        "meta_object_id": "1997-051CB",
        "meta_epoch": "2025-12-04T06:20:38.455872",
        "meta_mean_motion": 14.4953936,
        "meta_eccentricity": 0.00064602,
        "meta_inclination": 86.3932,
        "meta_ra_of_asc_node": 49.664,
        "meta_arg_of_pericenter": 218.4908,
        "meta_mean_anomaly": 206.1613,
        "meta_ephemeris_type": 0,
        "meta_classification_type": "U",
        "meta_norad_cat_id": 33966,
        "meta_element_set_no": 999,
        "meta_rev_at_epoch": 88319,
        "meta_bstar": 0.001297017,
        "meta_mean_motion_dot": 4.993e-05,
        "meta_mean_motion_ddot": 0,
        "tle_line1": "1 33966U 97051CB  25338.26433398  .00004993  00000+0  12970-2 0  9993",
        "tle_line2": "2 33966  86.3932  49.6640 0006460 218.4908 206.1613 14.49539360883199"
      },
      "geometry": {
        "type": "Point",
        "coordinates": [
          52.10680203301653,
          36.218284242149785
        ]
      }
    },
    {
      "type": "Feature",
      "properties": {
        "norad_id": 34071,
        "name": "IRIDIUM 33 DEB",
        "group": "iridium-33-debris",
        "lat": 73.09896767042174,
        "lon": -170.83444134472404,
        "alt_km": 714.4145692524935,
        "timestamp": "2025-12-04T17:48:40.549516+00:00",
        "meta_object_name": "IRIDIUM 33 DEB",
        "meta_object_id": "1997-051CE",
        "meta_epoch": "2025-12-04T02:24:35.020512",
        "meta_mean_motion": 14.49404394,
        "meta_eccentricity": 0.0009494,
        "meta_inclination": 86.3465,
        "meta_ra_of_asc_node": 21.5834,
        "meta_arg_of_pericenter": 130.9901,
        "meta_mean_anomaly": 229.2125,
        "meta_ephemeris_type": 0,
        "meta_classification_type": "U",
        "meta_norad_cat_id": 34071,
        "meta_element_set_no": 999,
        "meta_rev_at_epoch": 88209,
        "meta_bstar": 0.0012417488,
        "meta_mean_motion_dot": 4.769e-05,
        "meta_mean_motion_ddot": 0,
        "tle_line1": "1 34071U 97051CE  25338.10040533  .00004769  00000+0  12417-2 0  9996",
        "tle_line2": "2 34071  86.3465  21.5834 0009494 130.9901 229.2125 14.49404394882093"
      },
      "geometry": {
        "type": "Point",
        "coordinates": [
          -170.83444134472404,
          73.09896767042174
        ]
      }
    },
    {
      "type": "Feature",
      "properties": {
        "norad_id": 34077,
        "name": "IRIDIUM 33 DEB",
        "group": "iridium-33-debris",
        "lat": -48.85912762615391,
        "lon": -120.8229860814433,
        "alt_km": 692.612967145642,
        "timestamp": "2025-12-04T17:48:40.549526+00:00",
        "meta_object_name": "IRIDIUM 33 DEB",
        "meta_object_id": "1997-051CL",
        "meta_epoch": "2025-12-04T07:15:09.830304",
        "meta_mean_motion": 14.64621053,
        "meta_eccentricity": 0.0010928,
        "meta_inclination": 86.3873,
        "meta_ra_of_asc_node": 55.2234,
        "meta_arg_of_pericenter": 66.0803,
        "meta_mean_anomaly": 4.643,
        "meta_ephemeris_type": 0,
        "meta_classification_type": "U",
        "meta_norad_cat_id": 34077,
        "meta_element_set_no": 999,
        "meta_rev_at_epoch": 88209,
        "meta_bstar": 0.0046171322,
        "meta_mean_motion_dot": 0.00024632,
        "meta_mean_motion_ddot": 0,
        "tle_line1": "1 34077U 97051CL  25338.30219711  .00024632  00000+0  46171-2 0  9995",
        "tle_line2": "2 34077  86.3873  55.2234 0010928  66.0803   4.6430 14.64621053882098"
      },
      "geometry": {
        "type": "Point",
        "coordinates": [
          -120.8229860814433,
          -48.85912762615391
        ]
      }
    }
  ]
}